[{"OBJECT_NAME":"HORS 2","OBJECT_ID":"2023-091AG","EPOCH":"2026-03-09T22:11:34.810944","MEAN_MOTION":15.2928008,"ECCENTRICITY":0.00098173,"INCLINATION":97.5195,"RA_OF_ASC_NODE":134.7443,"ARG_OF_PERICENTER":79.3164,"MEAN_ANOMALY":280.9181,"EPHEMERIS_TYPE":0,"CLASSIFICATION_TYPE":"U","NORAD_CAT_ID":57196,"ELEMENT_SET_NO":999,"REV_AT_EPOCH":14934,"BSTAR":0.00059338338,"MEAN_MOTION_DOT":0.00016821,"MEAN_MOTION_DDOT":0},{"OBJECT_NAME":"STARLINK-32694","OBJECT_ID":"2025-003H","EPOCH":"2026-03-09T22:39:28.055808","MEAN_MOTION":15.27608117,"ECCENTRICITY":0.00013826,"INCLINATION":42.9977,"RA_OF_ASC_NODE":287.2605,"ARG_OF_PERICENTER":276.9761,"MEAN_ANOMALY":83.0933,"EPHEMERIS_TYPE":0,"CLASSIFICATION_TYPE":"U","NORAD_CAT_ID":62494,"ELEMENT_SET_NO":999,"REV_AT_EPOCH":6671,"BSTAR":0.0015065164,"MEAN_MOTION_DOT":0.00041463,"MEAN_MOTION_DDOT":0}]
